*******************************************************************************
 Revised: Dec 04, 2019            Lysithea / (Jupiter)                      510

 SATELLITE PHYSICAL PROPERTIES:
  Radius (km)             = 12              Density (g cm^-3)   =              
  Mass (10^20 kg )        =                 Geometric Albedo    =  
                                            V(1,0)              = +11.7 

 SATELLITE ORBITAL DATA:
  Semi-major axis, a (km) = 11720 (10^3)    Orbital period      = 259.22 d 
  Eccentricity, e         =   0.107         Rotational period   = 
  Inclination, i  (deg)   =   29            Local invar ref. pln= Sun
*******************************************************************************
 
 
*******************************************************************************
Ephemeris / WWW_USER Fri Jun 19 18:18:56 2020 Pasadena, USA      / Horizons
*******************************************************************************
Target body name: Lysithea (510)                  {source: jup343_merged}
Center body name: Solar System Barycenter (0)     {source: DE431mx}
Center-site name: BODY CENTER
*******************************************************************************
Start time      : A.D. 1969-Jun-28 00:00:00.0000 TDB
Stop  time      : A.D. 2071-May-04 00:00:00.0000 TDB
Step-size       : 7200 minutes
*******************************************************************************
Center geodetic : 0.00000000,0.00000000,0.0000000 {E-lon(deg),Lat(deg),Alt(km)}
Center cylindric: 0.00000000,0.00000000,0.0000000 {E-lon(deg),Dxy(km),Dz(km)}
Center radii    : (undefined)                                                  
Output units    : AU-D
Output type     : GEOMETRIC cartesian states
Output format   : 2 (position and velocity)
Reference frame : Ecliptic of J2000.0
*******************************************************************************
            JDTDB,            Calendar Date (TDB),        delta-T,                      X,                      Y,                      Z,                     VX,                     VY,                     VZ,
******************************************************************************************************************************************************************************************************************
$$SOE
2441450.500000000, A.D. 1972-May-13 00:00:00.0000,      42.185293,  7.462075966777727E-02, -5.190618667374274E+00,  2.715810823713041E-02,  6.070547662802638E-03,  1.541160190821390E-03,  7.897197080691208E-04,
2441455.500000000, A.D. 1972-May-18 00:00:00.0000,      42.185200,  1.045825153276939E-01, -5.183308272265629E+00,  3.103518182184474E-02,  5.919173442442313E-03,  1.380806137486342E-03,  7.583867446600370E-04,
2441460.500000000, A.D. 1972-May-23 00:00:00.0000,      42.185097,  1.338638834896342E-01, -5.176828039579120E+00,  3.471611309989098E-02,  5.798597713889548E-03,  1.209985050856210E-03,  7.115463939084215E-04,
2441465.500000000, A.D. 1972-May-28 00:00:00.0000,      42.184985,  1.626210759827237E-01, -5.171217185820220E+00,  3.812783973077746E-02,  5.709540474024361E-03,  1.033892636170581E-03,  6.510285183775180E-04,
2441470.500000000, A.D. 1972-Jun-02 00:00:00.0000,      42.184865,  1.910115033332937E-01, -5.166489853931471E+00,  4.120695543278322E-02,  5.651786516557429E-03,  8.573372784944936E-04,  5.788469521468482E-04,
2441475.500000000, A.D. 1972-Jun-07 00:00:00.0000,      42.184741,  2.191894958225920E-01, -5.162637417176960E+00,  4.390034482184937E-02,  5.624345246292951E-03,  6.845996736751586E-04,  4.970861542925286E-04,
2441480.500000000, A.D. 1972-Jun-12 00:00:00.0000,      42.184613,  2.473028421657266E-01, -5.159631318569863E+00,  4.616529822673505E-02,  5.625621628408853E-03,  5.193639850916513E-04,  4.078106945476218E-04,
2441485.500000000, A.D. 1972-Jun-17 00:00:00.0000,      42.184480,  2.754902123603197E-01, -5.157426142292115E+00,  4.796921868853919E-02,  5.653589142561372E-03,  3.646894701868951E-04,  3.129909367875753E-04,
2441490.500000000, A.D. 1972-Jun-22 00:00:00.0000,      42.184343,  3.038793908569019E-01, -5.155962694579562E+00,  4.928902683363873E-02,  5.705946103442996E-03,  2.230336446059604E-04,  2.144566803268692E-04,
2441495.500000000, A.D. 1972-Jun-27 00:00:00.0000,      42.184202,  3.325862485688360E-01, -5.155170915322533E+00,  5.011036566868877E-02,  5.780247283206938E-03,  9.629599532709273E-05,  1.138645191089089E-04,
2441500.500000000, A.D. 1972-Jul-02 00:00:00.0000,      43.184059,  3.617143012358542E-01, -5.154972495740443E+00,  5.042670900344370E-02,  5.874012321597877E-03, -1.411243476962019E-05,  1.268828087590862E-05,
2441505.500000000, A.D. 1972-Jul-07 00:00:00.0000,      43.183918,  3.913547402541293E-01, -5.155283149647365E+00,  5.023843568033290E-02,  5.984802060819715E-03, -1.071980303746775E-04, -8.778146108600661E-05,
2441510.500000000, A.D. 1972-Jul-12 00:00:00.0000,      43.183778,  4.215867881353427E-01, -5.156014500001891E+00,  4.955194348723507E-02,  6.110275731738742E-03, -1.823069134490239E-04, -1.864267672174131E-04,
2441515.500000000, A.D. 1972-Jul-17 00:00:00.0000,      43.183640,  4.524782746908253E-01, -5.157075605544867E+00,  4.837882081580212E-02,  6.248220784576437E-03, -2.390547137409032E-04, -2.822851215403077E-04,
2441520.500000000, A.D. 1972-Jul-22 00:00:00.0000,      43.183502,  4.840863313776185E-01, -5.158374138894932E+00,  4.673511841626499E-02,  6.396571716850185E-03, -2.772624842417321E-04, -3.745313072772234E-04,
2441525.500000000, A.D. 1972-Jul-27 00:00:00.0000,      43.183367,  5.164581274639003E-01, -5.159817274848127E+00,  4.464072084731250E-02,  6.553408949758848E-03, -2.969005660134464E-04, -4.624531177290931E-04,
2441530.500000000, A.D. 1972-Aug-01 00:00:00.0000,      43.183237,  5.496315934407219E-01, -5.161312316535975E+00,  4.211882655375999E-02,  6.716953792556575E-03, -2.980439279180428E-04, -5.454336398283880E-04,
2441535.500000000, A.D. 1972-Aug-06 00:00:00.0000,      43.183114,  5.836360796659219E-01, -5.162767122504432E+00,  3.919553095102719E-02,  6.885550826178186E-03, -2.808337638938940E-04, -6.229282597165271E-04,
2441540.500000000, A.D. 1972-Aug-11 00:00:00.0000,      43.182997,  6.184929325674026E-01, -5.164090367310116E+00,  3.589950429196142E-02,  7.057649081279873E-03, -2.454517559091968E-04, -6.944479198764629E-04,
2441545.500000000, A.D. 1972-Aug-16 00:00:00.0000,      43.182888,  6.542159522338565E-01, -5.165191685335738E+00,  3.226176242064622E-02,  7.231778092315367E-03, -1.920973486500346E-04, -7.595418913483594E-04,
2441550.500000000, A.D. 1972-Aug-21 00:00:00.0000,      43.182785,  6.908117361826058E-01, -5.165981733371718E+00,  2.831550619670404E-02,  7.406521759882480E-03, -1.209782904422665E-04, -8.177838550339922E-04,
2441555.500000000, A.D. 1972-Aug-26 00:00:00.0000,      43.182689,  7.282798829713423E-01, -5.166372205721095E+00,  2.409603265994259E-02,  7.580493122668234E-03, -3.230199226159598E-05, -8.687604967871253E-04,
2441560.500000000, A.D. 1972-Aug-31 00:00:00.0000,      43.182603,  7.666130690914398E-01, -5.166275841110528E+00,  1.964069502789475E-02,  7.752304978839135E-03,  7.372141466635938E-05, -9.120609023268092E-04,
2441565.500000000, A.D. 1972-Sep-05 00:00:00.0000,      43.182529,  8.057969849693281E-01, -5.165606442171167E+00,  1.498890621503889E-02,  7.920546112664182E-03,  1.968737773070622E-04, -9.472713729964488E-04,
2441570.500000000, A.D. 1972-Sep-10 00:00:00.0000,      43.182466,  8.458101410229688E-01, -5.164278952338435E+00,  1.018216763509467E-02,  8.083751536255878E-03,  3.369153668213789E-04, -9.739698309282795E-04,
2441575.500000000, A.D. 1972-Sep-15 00:00:00.0000,      43.182413,  8.866235477069260E-01, -5.162209604955707E+00,  5.264111356920459E-03,  8.240381647269453E-03,  4.935649818414128E-04, -9.917259251436539E-04,
2441580.500000000, A.D. 1972-Sep-20 00:00:00.0000,      43.182371,  9.282002711878923E-01, -5.159316195346767E+00,  2.805406806938379E-04,  8.388796112041502E-03,  6.664753313577550E-04, -1.000102598721526E-03,
2441585.500000000, A.D. 1972-Sep-25 00:00:00.0000,      43.182339,  9.704948947969154E-01, -5.155518489970868E+00, -4.720553786523591E-03,  8.527237787652844E-03,  8.551982870947023E-04, -9.986631404300767E-04,
2441590.500000000, A.D. 1972-Sep-30 00:00:00.0000,      43.182320,  1.013452888062760E+00, -5.150738823492182E+00, -9.689019532935697E-03,  8.653818137908210E-03,  1.059148015541981E-03, -9.869818681329510E-04,
2441595.500000000, A.D. 1972-Oct-05 00:00:00.0000,      43.182316,  1.057009935000057E+00, -5.144902910160082E+00, -1.457263698706224E-02,  8.766509644198874E-03,  1.277550092304350E-03, -9.646608798188953E-04,
2441600.500000000, A.D. 1972-Oct-10 00:00:00.0000,      43.182324,  1.101091243149016E+00, -5.137940903592724E+00, -1.931731064941007E-02,  8.863152082084295E-03,  1.509393392385168E-03, -9.313519687148715E-04,
2441605.500000000, A.D. 1972-Oct-15 00:00:00.0000,      43.182344,  1.145610912930505E+00, -5.129788738749889E+00, -2.386738954606468E-02,  8.941466122329962E-03,  1.753367591845885E-03, -8.867864592344489E-04,
2441610.500000000, A.D. 1972-Oct-20 00:00:00.0000,      43.182375,  1.190471424354886E+00, -5.120389763911276E+00, -2.816614867264075E-02,  8.999090628207114E-03,  2.007805987108575E-03, -8.308104050101930E-04,
2441615.500000000, A.D. 1972-Oct-25 00:00:00.0000,      43.182417,  1.235563346335166E+00, -5.109696684646832E+00, -3.215647139288489E-02,  9.033633219445622E-03,  2.270624995203079E-03, -7.634279280433880E-04,
2441620.500000000, A.D. 1972-Oct-30 00:00:00.0000,      43.182471,  1.280765377266043E+00, -5.097673771944154E+00, -3.578175297841400E-02,  9.042752944801001E-03,  2.539272434677744E-03, -6.848490072964831E-04,
